{"type": "FeatureCollection", "features": [ {"type": "Feature", "properties": {"norad_id": 66635, "name": "STARLINK-35955", "group": "last-30-days", "lat": -1.0010222970257248, "lon": 134.0439463897386, "alt_km": 447.98454764846974, "timestamp": "2025-12-23T18:59:30.756507+00:00", "meta": {"OBJECT_NAME": "STARLINK-35955", "OBJECT_ID": "2025-271U", "EPOCH": "2025-12-22T16:30:47.762784", "MEAN_MOTION": 15.39617924, "ECCENTRICITY": 0.00011126, "INCLINATION": 53.1619, "RA_OF_ASC_NODE": 139.9948, "ARG_OF_PERICENTER": 92.8887, "MEAN_ANOMALY": 267.2246, "EPHEMERIS_TYPE": 0, "CLASSIFICATION_TYPE": "U", "NORAD_CAT_ID": 66635, "ELEMENT_SET_NO": 999, "REV_AT_EPOCH": 574, "BSTAR": 0.0014728195, "MEAN_MOTION_DOT": 0.00058965, "MEAN_MOTION_DDOT": 0}, "tle": {"line1": "1 66635U 25271U   25356.68805281  .00058965  00000+0  14728-2 0  9998", "line2": "2 66635  53.1619 139.9948 0001112  92.8887 267.2246 15.39617924  5745"}}, "geometry": {"type": "Point", "coordinates": [134.0439463897386, -1.0010222970257248]}}, {"type": "Feature", "properties": {"norad_id": 66636, "name": "STARLINK-35968", "group": "last-30-days", "lat": -21.329314325504168, "lon": 117.82334727728144, "alt_km": 450.4209310461065, "timestamp": "2025-12-23T18:59:30.756519+00:00", "meta": {"OBJECT_NAME": "STARLINK-35968", "OBJECT_ID": "2025-271V", "EPOCH": "2025-12-22T18:10:57.478080", "MEAN_MOTION": 15.39623734, "ECCENTRICITY": 7.152e-05, "INCLINATION": 53.1613, "RA_OF_ASC_NODE": 139.7173, "ARG_OF_PERICENTER": 97.5521, "MEAN_ANOMALY": 262.5565, "EPHEMERIS_TYPE": 0, "CLASSIFICATION_TYPE": "U", "NORAD_CAT_ID": 66636, "ELEMENT_SET_NO": 999, "REV_AT_EPOCH": 575, "BSTAR": 0.0012036334, "MEAN_MOTION_DOT": 0.00048054, "MEAN_MOTION_DDOT": 0}, "tle": {"line1": "1 66636U 25271V   25356.75760970  .00048054  00000+0  12036-2 0  9990", "line2": "2 66636  53.1613 139.7173 0000715  97.5521 262.5565 15.39623734  5752"}}, "geometry": {"type": "Point", "coordinates": [117.82334727728144, -21.329314325504168]}}, {"type": "Feature", "properties": {"norad_id": 66637, "name": "STARLINK-35953", "group": "last-30-days", "lat": 19.356530949057266, "lon": 150.01263741388826, "alt_km": 444.77619187116034, "timestamp": "2025-12-23T18:59:30.756530+00:00", "meta": {"OBJECT_NAME": "STARLINK-35953", "OBJECT_ID": "2025-271W", "EPOCH": "2025-12-22T19:31:03.800352", "MEAN_MOTION": 15.3962561, "ECCENTRICITY": 9.742e-05, "INCLINATION": 53.1613, "RA_OF_ASC_NODE": 139.3531, "ARG_OF_PERICENTER": 94.7147, "MEAN_ANOMALY": 265.3969, "EPHEMERIS_TYPE": 0, "CLASSIFICATION_TYPE": "U", "NORAD_CAT_ID": 66637, "ELEMENT_SET_NO": 999, "REV_AT_EPOCH": 576, "BSTAR": 0.0013743758, "MEAN_MOTION_DOT": 0.00054982, "MEAN_MOTION_DDOT": 0}, "tle": {"line1": "1 66637U 25271W   25356.81323843  .00054982  00000+0  13744-2 0  9996", "line2": "2 66637  53.1613 139.3531 0000974  94.7147 265.3969 15.39625610  5762"}}, "geometry": {"type": "Point", "coordinates": [150.01263741388826, 19.356530949057266]}}, {"type": "Feature", "properties": {"norad_id": 66638, "name": "STARLINK-35972", "group": "last-30-days", "lat": 50.888664228266876, "lon": -158.12753050204697, "alt_km": 438.89550192061506, "timestamp": "2025-12-23T18:59:30.756540+00:00", "meta": {"OBJECT_NAME": "STARLINK-35972", "OBJECT_ID": "2025-271X", "EPOCH": "2025-12-23T03:05:05.157024", "MEAN_MOTION": 15.396295, "ECCENTRICITY": 0.00020458, "INCLINATION": 53.1617, "RA_OF_ASC_NODE": 137.762, "ARG_OF_PERICENTER": 86.247, "MEAN_ANOMALY": 273.8768, "EPHEMERIS_TYPE": 0, "CLASSIFICATION_TYPE": "U", "NORAD_CAT_ID": 66638, "ELEMENT_SET_NO": 999, "REV_AT_EPOCH": 581, "BSTAR": 0.0006973888, "MEAN_MOTION_DOT": 0.00027605, "MEAN_MOTION_DDOT": 0}, "tle": {"line1": "1 66638U 25271X   25357.12853191  .00027605  00000+0  69739-3 0  9994", "line2": "2 66638  53.1617 137.7620 0002045  86.2470 273.8768 15.39629500  5813"}}, "geometry": {"type": "Point", "coordinates": [-158.12753050204697, 50.888664228266876]}}, {"type": "Feature", "properties": {"norad_id": 66639, "name": "STARLINK-35908", "group": "last-30-days", "lat": 51.602298809399535, "lon": -116.487192880977, "alt_km": 439.2994464836747, "timestamp": "2025-12-23T18:59:30.756549+00:00", "meta": {"OBJECT_NAME": "STARLINK-35908", "OBJECT_ID": "2025-271Y", "EPOCH": "2025-12-23T06:00:00.999648", "MEAN_MOTION": 15.39570942, "ECCENTRICITY": 0.00013293, "INCLINATION": 53.161, "RA_OF_ASC_NODE": 137.1402, "ARG_OF_PERICENTER": 89.6399, "MEAN_ANOMALY": 249.9604, "EPHEMERIS_TYPE": 0, "CLASSIFICATION_TYPE": "U", "NORAD_CAT_ID": 66639, "ELEMENT_SET_NO": 999, "REV_AT_EPOCH": 593, "BSTAR": 0.001991941, "MEAN_MOTION_DOT": 0.00079987, "MEAN_MOTION_DDOT": 0}, "tle": {"line1": "1 66639U 25271Y   25357.25001157  .00079987  00000+0  19919-2 0  9990", "line2": "2 66639  53.1610 137.1402 0001329  89.6399 249.9604 15.39570942  5931"}}, "geometry": {"type": "Point", "coordinates": [-116.487192880977, 51.602298809399535]}}, {"type": "Feature", "properties": {"norad_id": 66640, "name": "STARLINK-35921", "group": "last-30-days", "lat": 37.87760232104543, "lon": 170.36460800352933, "alt_km": 441.29564284963, "timestamp": "2025-12-23T18:59:30.756558+00:00", "meta": {"OBJECT_NAME": "STARLINK-35921", "OBJECT_ID": "2025-271Z", "EPOCH": "2025-12-23T03:11:46.110912", "MEAN_MOTION": 15.39624351, "ECCENTRICITY": 0.00013011, "INCLINATION": 53.1604, "RA_OF_ASC_NODE": 137.7938, "ARG_OF_PERICENTER": 72.6687, "MEAN_ANOMALY": 287.446, "EPHEMERIS_TYPE": 0, "CLASSIFICATION_TYPE": "U", "NORAD_CAT_ID": 66640, "ELEMENT_SET_NO": 999, "REV_AT_EPOCH": 581, "BSTAR": 0.0013893755, "MEAN_MOTION_DOT": 0.00055588, "MEAN_MOTION_DDOT": 0}, "tle": {"line1": "1 66640U 25271Z   25357.13317258  .00055588  00000+0  13894-2 0  9998", "line2": "2 66640  53.1604 137.7938 0001301  72.6687 287.4460 15.39624351  5816"}}, "geometry": {"type": "Point", "coordinates": [170.36460800352933, 37.87760232104543]}}, {"type": "Feature", "properties": {"norad_id": 66641, "name": "STARLINK-35923", "group": "last-30-days", "lat": -15.763898139444493, "lon": -33.389355866078546, "alt_km": 432.53074909885527, "timestamp": "2025-12-23T18:59:30.756567+00:00", "meta": {"OBJECT_NAME": "STARLINK-35923", "OBJECT_ID": "2025-271AA", "EPOCH": "2025-12-23T06:00:00.999648", "MEAN_MOTION": 15.45494885, "ECCENTRICITY": 0.00011284, "INCLINATION": 53.1606, "RA_OF_ASC_NODE": 136.9668, "ARG_OF_PERICENTER": 94.6198, "MEAN_ANOMALY": 331.5538, "EPHEMERIS_TYPE": 0, "CLASSIFICATION_TYPE": "U", "NORAD_CAT_ID": 66641, "ELEMENT_SET_NO": 999, "REV_AT_EPOCH": 593, "BSTAR": 0.0017590954, "MEAN_MOTION_DOT": 0.0008623, "MEAN_MOTION_DDOT": 0}, "tle": {"line1": "1 66641U 25271AA  25357.25001157  .00086230  00000+0  17591-2 0  9996", "line2": "2 66641  53.1606 136.9668 0001128  94.6198 331.5538 15.45494885  5932"}}, "geometry": {"type": "Point", "coordinates": [-33.389355866078546, -15.763898139444493]}}, {"type": "Feature", "properties": {"norad_id": 66642, "name": "STARLINK-35926", "group": "last-30-days", "lat": -13.60354228961477, "lon": -35.14800002703517, "alt_km": 436.04936794783043, "timestamp": "2025-12-23T18:59:30.756576+00:00", "meta": {"OBJECT_NAME": "STARLINK-35926", "OBJECT_ID": "2025-271AB", "EPOCH": "2025-12-23T06:00:00.999648", "MEAN_MOTION": 15.4585995, "ECCENTRICITY": 0.0001414, "INCLINATION": 53.1602, "RA_OF_ASC_NODE": 136.9721, "ARG_OF_PERICENTER": 56.67, "MEAN_ANOMALY": 7.4896, "EPHEMERIS_TYPE": 0, "CLASSIFICATION_TYPE": "U", "NORAD_CAT_ID": 66642, "ELEMENT_SET_NO": 999, "REV_AT_EPOCH": 569, "BSTAR": -0.026592965, "MEAN_MOTION_DOT": -0.01194845, "MEAN_MOTION_DDOT": 0}, "tle": {"line1": "1 66642U 25271AB  25357.25001157 -.01194845  00000+0 -26593-1 0  9993", "line2": "2 66642  53.1602 136.9721 0001414  56.6700   7.4896 15.45859950  5691"}}, "geometry": {"type": "Point", "coordinates": [-35.14800002703517, -13.60354228961477]}}, {"type": "Feature", "properties": {"norad_id": 66643, "name": "STARLINK-35918", "group": "last-30-days", "lat": 39.453272187585725, "lon": -83.55789728209206, "alt_km": 441.32068747924404, "timestamp": "2025-12-23T18:59:30.756585+00:00", "meta": {"OBJECT_NAME": "STARLINK-35918", "OBJECT_ID": "2025-271AC", "EPOCH": "2025-12-23T06:00:00.999648", "MEAN_MOTION": 15.39572219, "ECCENTRICITY": 0.00011668, "INCLINATION": 53.1607, "RA_OF_ASC_NODE": 137.0891, "ARG_OF_PERICENTER": 91.1313, "MEAN_ANOMALY": 274.2236, "EPHEMERIS_TYPE": 0, "CLASSIFICATION_TYPE": "U", "NORAD_CAT_ID": 66643, "ELEMENT_SET_NO": 999, "REV_AT_EPOCH": 593, "BSTAR": 0.001978447, "MEAN_MOTION_DOT": 0.0007944, "MEAN_MOTION_DDOT": 0}, "tle": {"line1": "1 66643U 25271AC  25357.25001157  .00079440  00000+0  19784-2 0  9999", "line2": "2 66643  53.1607 137.0891 0001166  91.1313 274.2236 15.39572219  5937"}}, "geometry": {"type": "Point", "coordinates": [-83.55789728209206, 39.453272187585725]}}, {"type": "Feature", "properties": {"norad_id": 66644, "name": "STARLINK-35938", "group": "last-30-days", "lat": -12.123565908234962, "lon": -36.3292884351665, "alt_km": 435.8127516589484, "timestamp": "2025-12-23T18:59:30.756597+00:00", "meta": {"OBJECT_NAME": "STARLINK-35938", "OBJECT_ID": "2025-271AD", "EPOCH": "2025-12-23T06:00:00.999648", "MEAN_MOTION": 15.45956516, "ECCENTRICITY": 0.00011363, "INCLINATION": 53.1602, "RA_OF_ASC_NODE": 136.9759, "ARG_OF_PERICENTER": 62.5399, "MEAN_ANOMALY": 359.7028, "EPHEMERIS_TYPE": 0, "CLASSIFICATION_TYPE": "U", "NORAD_CAT_ID": 66644, "ELEMENT_SET_NO": 999, "REV_AT_EPOCH": 593, "BSTAR": -0.029450314, "MEAN_MOTION_DOT": -0.01314714, "MEAN_MOTION_DDOT": 0}, "tle": {"line1": "1 66644U 25271AD  25357.25001157 -.01314714  00000+0 -29450-1 0  9999", "line2": "2 66644  53.1602 136.9759 0001136  62.5399 359.7028 15.45956516  5938"}}, "geometry": {"type": "Point", "coordinates": [-36.3292884351665, -12.123565908234962]}}]}